NORAD_CAT_ID,OBJECT_NAME,OBJECT_TYPE,EPOCH,MEAN_MOTION,ECCENTRICITY,INCLINATION,RA_OF_ASC_NODE,ARG_OF_PERICENTER,MEAN_ANOMALY,BSTAR,MEAN_MOTION_DOT,MEAN_MOTION_DDOT,TLE_LINE0,TLE_LINE1,TLE_LINE2,SEMIMAJOR_AXIS,PERIOD,APOGEE,PERIGEE,DECAYED
53631.0,STARLINK-4599,PAYLOAD,2022-10-02 22:00:00,15.73214044,0.0001223,53.2152,110.8596,107.18,124.7062,0.00013214,0.00017976,0.0,0 STARLINK-4599,1 53631U 22104AV  22275.91667824  .00017976  00000-0  13214-3 0  9992,2 53631  53.2152 110.8596 0001223 107.1800 124.7062 15.73214044  5663,6727.855,91.532,350.543,348.897,0.0
53631.0,STARLINK-4599,PAYLOAD,2022-10-03 14:00:01,15.73190416,0.0001179,53.2149,107.5587,121.9093,287.901,0.00045566,0.00063789,0.0,0 STARLINK-4599,1 53631U 22104AV  22276.58334491  .00063789  00000-0  45566-3 0  9995,2 53631  53.2149 107.5587 0001179 121.9093 287.9010 15.73190416  1308,6727.922,91.534,350.581,348.994,0.0
53631.0,STARLINK-4599,PAYLOAD,2022-10-03 22:00:00,15.7322021,0.0001044999999999,53.2149,105.9111,106.0368,32.7229,7.1357e-05,9.414e-05,0.0,0 STARLINK-4599,1 53631U 22104AV  22276.91667824  .00009414  00000-0  71357-4 0  9994,2 53631  53.2149 105.9111 0001045 106.0368  32.7229 15.73220210  5829,6727.8380000000025,91.532,350.406,348.999,0.0
53631.0,STARLINK-4599,PAYLOAD,2022-10-04 14:00:01,15.7322247,0.0001273,53.2154,102.6099,111.7843,204.8923,-0.00051746,-0.00072687,0.0,0 STARLINK-4599,1 53631U 22104AV  22277.58334491 -.00072687  00000-0 -51746-3 0  9992,2 53631  53.2154 102.6099 0001273 111.7843 204.8923 15.73222470  1300,6727.831,91.532,350.55300000000005,348.84,0.0
53631.0,STARLINK-4599,PAYLOAD,2022-10-04 16:00:00,15.73212458,0.0001214,53.2153,102.1982,107.6804,321.2315,-0.00052297,-0.00073416,0.0,0 STARLINK-4599,1 53631U 22104AV  22277.66667824 -.00073416  00000-0 -52297-3 0  9993,2 53631  53.2153 102.1982 0001214 107.6804 321.2315 15.73212458  5949,6727.86,91.532,350.541,348.908,0.0
53631.0,STARLINK-4599,PAYLOAD,2022-10-04 22:00:00,15.73157655,0.0001135,53.2152,100.9623,97.8168,307.796,6.4225e-05,8.387e-05,0.0,0 STARLINK-4599,1 53631U 22104AV  22277.91667824  .00008387  00000-0  64225-4 0  9999,2 53631  53.2152 100.9623 0001135  97.8168 307.7960 15.73157655  1309,6728.016,91.536,350.645,349.117,0.0
53631.0,STARLINK-4599,PAYLOAD,2022-10-05 06:00:00,15.73178173,0.0001022999999999,53.2149,99.3111,105.1303,29.3621,-0.00021918,-0.00031236,0.0,0 STARLINK-4599,1 53631U 22104AV  22278.25001157 -.00031236  00000-0 -21918-3 0  9990,2 53631  53.2149  99.3111 0001023 105.1303  29.3621 15.73178173  6032,6727.956999999999,91.534,350.511,349.134,0.0
53631.0,STARLINK-4599,PAYLOAD,2022-10-05 14:00:01,15.73188029,0.0001100999999999,53.2149,97.6617,108.8296,114.5994,-0.00013612,-0.00019668,0.0,0 STARLINK-4599,1 53631U 22104AV  22278.58335648 -.00019668  00000-0 -13612-3 0  9998,2 53631  53.2149  97.6617 0001101 108.8296 114.5994 15.73188029  1308,6727.929,91.534,350.535,349.05400000000014,0.0
53631.0,STARLINK-4599,PAYLOAD,2022-10-05 22:00:00,15.73159626,0.0001298,53.2159,96.0139,94.5502,217.7105,0.00038048,0.00053023,0.0,0 STARLINK-4599,1 53631U 22104AV  22278.91667824  .00053023  00000-0  38048-3 0  9990,2 53631  53.2159  96.0139 0001298  94.5502 217.7105 15.73159626  6136,6728.01,91.536,350.749,349.00199999999984,0.0
53631.0,STARLINK-4599,PAYLOAD,2022-10-06 14:00:01,15.73233093,0.0001097999999999,53.2167,92.7109,96.5986,33.5582,-0.0052,-0.00675481,0.0,0 STARLINK-4599,1 53631U 22104AV  22279.58334491 -.00675481  00000-0 -52000-2 0  9998,2 53631  53.2167  92.7109 0001098  96.5986  33.5582 15.73233093  1309,6727.801,91.531,350.405,348.927,0.0
53631.0,STARLINK-4599,PAYLOAD,2022-10-06 22:42:55,15.72757552,9.44e-05,53.2174,90.9161,90.7231,296.8855,-0.0084816,-0.0105117,0.0,0 STARLINK-4599,1 53631U 22104AV  22279.94646991 -.01051170  00000-0 -84816-2 0  9993,2 53631  53.2174  90.9161 0000944  90.7231 296.8855 15.72757552  1300,6729.156999999997,91.559,351.657,350.38699999999994,0.0
53631.0,STARLINK-4599,PAYLOAD,2022-10-07 00:00:00,15.72637692,9.65e-05,53.2173,90.6511,91.2791,239.6394,-0.0085494,-0.01053836,0.0,0 STARLINK-4599,1 53631U 22104AV  22280.00001157 -.01053836  00000-0 -85494-2 0  9995,2 53631  53.2173  90.6511 0000965  91.2791 239.6394 15.72637692  6305,6729.499,91.566,352.01300000000015,350.714,0.0
53631.0,STARLINK-4599,PAYLOAD,2022-10-07 14:00:01,15.71305185,0.0001009,53.2171,87.7683,75.7073,318.2401,-0.0090149,-0.01050127,0.0,0 STARLINK-4599,1 53631U 22104AV  22280.58334491 -.01050127  00000-0 -90149-2 0  9991,2 53631  53.2171  87.7683 0001009  75.7073 318.2401 15.71305185  1306,6733.303000000001,91.644,355.847,354.48800000000006,0.0
53631.0,STARLINK-4599,PAYLOAD,2022-10-07 22:00:00,15.70545782,0.0001097,53.2171,86.1262,76.8228,43.3121,-0.0092936,-0.0104855,0.0,0 STARLINK-4599,1 53631U 22104AV  22280.91667824 -.01048550  00000-0 -92936-2 0  9990,2 53631  53.2171  86.1262 0001097  76.8228  43.3121 15.70545782  6457,6735.473000000001,91.688,358.077,356.599,0.0
53631.0,STARLINK-4599,PAYLOAD,2022-10-08 14:00:01,15.69034515,0.0001113,53.217,82.84200000000001,80.0506,209.7221,-0.010018,-0.01059668,0.0,0 STARLINK-4599,1 53631U 22104AV  22281.58334491 -.01059668  00000-0 -10018-1 0  9997,2 53631  53.2170  82.8420 0001113  80.0506 209.7221 15.69034515  1303,6739.797,91.776,362.413,360.912,0.0
53631.0,STARLINK-4599,PAYLOAD,2022-10-08 22:00:00,15.68267814,0.0001012,53.217,81.2052,70.3231,302.9025,-0.01022,-0.0104841,0.0,0 STARLINK-4599,1 53631U 22104AV  22281.91667824 -.01048410  00000-0 -10220-1 0  9991,2 53631  53.2170  81.2052 0001012  70.3231 302.9025 15.68267814  1309,6741.994000000002,91.821,364.541,363.177,0.0
53631.0,STARLINK-4599,PAYLOAD,2022-10-09 14:00:01,15.66753748,0.0001356,53.2172,77.9323,61.4241,115.9645,-0.010952,-0.01055133,0.0,0 STARLINK-4599,1 53631U 22104AV  22282.58334491 -.01055133  00000-0 -10952-1 0  9998,2 53631  53.2172  77.9323 0001356  61.4241 115.9645 15.66753748  6711,6746.337,91.91,369.117,367.287,0.0
53631.0,STARLINK-4599,PAYLOAD,2022-10-09 22:00:00,15.6598845,0.0001274,53.2172,76.3006,56.6173,201.4859,-0.01119,-0.01046016,0.0,0 STARLINK-4599,1 53631U 22104AV  22282.91667824 -.01046016  00000-0 -11190-1 0  9999,2 53631  53.2172  76.3006 0001274  56.6173 201.4859 15.65988450  1308,6748.534000000002,91.955,371.259,369.54,0.0
53631.0,STARLINK-4599,PAYLOAD,2022-10-10 14:00:01,15.64472387,0.0001258,53.2174,73.0394,51.773,5.018,-0.011958,-0.0105102,0.0,0 STARLINK-4599,1 53631U 22104AV  22283.58334491 -.01051020  00000-0 -11958-1 0  9997,2 53631  53.2174  73.0394 0001258  51.7730   5.0180 15.64472387  6879,6752.894,92.044,375.608,373.909,0.0
53631.0,STARLINK-4599,PAYLOAD,2022-10-10 22:00:01,15.63710442,0.0001227,53.2172,71.4129,64.0268,70.8046,-0.0122659999999999,-0.01046336,0.0,0 STARLINK-4599,1 53631U 22104AV  22283.91668981 -.01046336  00000-0 -12266-1 0  9995,2 53631  53.2172  71.4129 0001227  64.0268  70.8046 15.63710442  1304,6755.087,92.089,377.781,376.12300000000016,0.0
53631.0,STARLINK-4599,PAYLOAD,2022-10-11 14:00:01,15.62192249,0.0001193999999999,53.2176,68.163,66.3312,221.6473,-0.013037,-0.01063539,0.0,0 STARLINK-4599,1 53631U 22104AV  22284.58334491 -.01063539  00000-0 -13037-1 0  9996,2 53631  53.2176  68.1630 0001194  66.3312 221.6473 15.62192249  1304,6759.4630000000025,92.178,382.135,380.521,0.0
53631.0,STARLINK-4599,PAYLOAD,2022-10-11 22:00:00,15.61447475,0.0001266,53.2169,66.5421,44.3615,318.8465,-0.0136949999999999,-0.01083241,0.0,0 STARLINK-4599,1 53631U 22104AV  22284.91667824 -.01083241  00000-0 -13695-1 0  9994,2 53631  53.2169  66.5421 0001266  44.3615 318.8465 15.61447475  1301,6761.611999999999,92.222,384.333,382.621,0.0
53631.0,STARLINK-4599,PAYLOAD,2022-10-12 06:00:00,15.60672355,0.0001193999999999,53.2173,64.9198,56.3584,21.1828,-0.013816,-0.01062387,0.0,0 STARLINK-4599,1 53631U 22104AV  22285.25001157 -.01062387  00000-0 -13816-1 0  9996,2 53631  53.2173  64.9198 0001194  56.3584  21.1828 15.60672355  7137,6763.851,92.268,386.523,384.908,0.0
53631.0,STARLINK-4599,PAYLOAD,2022-10-12 14:00:01,15.59911828,0.0001372,53.2174,63.303,58.3175,92.6349,-0.014193,-0.0106007999999999,0.0,0 STARLINK-4599,1 53631U 22104AV  22285.58334491 -.01060080  00000-0 -14193-1 0  9999,2 53631  53.2174  63.3030 0001372  58.3175  92.6349 15.59911828  1305,6766.049,92.313,388.842,386.986,0.0
53631.0,STARLINK-4599,PAYLOAD,2022-10-12 22:00:00,15.59155158,0.0001318,53.217,61.6873,60.346,163.1039,-0.0146729999999999,-0.01064155,0.0,0 STARLINK-4599,1 53631U 22104AV  22285.91667824 -.01064155  00000-0 -14673-1 0  9995,2 53631  53.2170  61.6873 0001318  60.3460 163.1039 15.59155158  1303,6768.238,92.358,390.995,389.211,0.0
53631.0,STARLINK-4599,PAYLOAD,2022-10-13 14:00:01,15.57636222,0.000132,53.2173,58.4597,46.6264,319.0839,-0.015543,-0.01064005,0.0,0 STARLINK-4599,1 53631U 22104AV  22286.58334491 -.01064005  00000-0 -15543-1 0  9991,2 53631  53.2173  58.4597 0001320  46.6264 319.0839 15.57636222  1309,6772.637,92.448,395.396,393.608,0.0
53631.0,STARLINK-4599,PAYLOAD,2022-10-13 20:00:01,15.57064264,0.0001302,53.2174,57.2522,46.6895,281.4922,-0.015808,-0.0105948999999999,0.0,0 STARLINK-4599,1 53631U 22104AV  22286.83335648 -.01059490  00000-0 -15808-1 0  9990,2 53631  53.2174  57.2522 0001302  46.6895 281.4922 15.57064264  7374,6774.295999999999,92.482,397.043,395.279,0.0
53631.0,STARLINK-4599,PAYLOAD,2022-10-13 22:00:00,15.5687593,0.0001431,53.2171,56.8492,42.3521,33.1193,-0.015961,-0.01061993,0.0,0 STARLINK-4599,1 53631U 22104AV  22286.91667824 -.01061993  00000-0 -15961-1 0  9994,2 53631  53.2171  56.8492 0001431  42.3521  33.1193 15.56875930  1302,6774.842,92.493,397.676,395.73800000000006,0.0
53631.0,STARLINK-4599,PAYLOAD,2022-10-14 14:00:01,15.55354076,0.0001501,53.2175,53.6329,52.5388,159.718,-0.016818,-0.01057634,0.0,0 STARLINK-4599,1 53631U 22104AV  22287.58334491 -.01057634  00000-0 -16818-1 0  9998,2 53631  53.2175  53.6329 0001501  52.5388 159.7180 15.55354076  1305,6779.261,92.583,402.143,400.108,0.0
